[{"OBJECT_NAME":"STARLINK-6211","OBJECT_ID":"2023-088M","EPOCH":"2026-03-09T03:24:07.296768","MEAN_MOTION":15.02533802,"ECCENTRICITY":0.00015891,"INCLINATION":43.0026,"RA_OF_ASC_NODE":110.7549,"ARG_OF_PERICENTER":269.935,"MEAN_ANOMALY":90.131,"EPHEMERIS_TYPE":0,"CLASSIFICATION_TYPE":"U","NORAD_CAT_ID":57059,"ELEMENT_SET_NO":999,"REV_AT_EPOCH":15028,"BSTAR":-3.5975152e-5,"MEAN_MOTION_DOT":-6.9e-6,"MEAN_MOTION_DDOT":0},{"OBJECT_NAME":"FENGYUN 1C DEB","OBJECT_ID":"1999-025EZQ","EPOCH":"2026-03-02T09:43:26.129856","MEAN_MOTION":14.27138362,"ECCENTRICITY":0.0348107,"INCLINATION":98.2222,"RA_OF_ASC_NODE":265.8497,"ARG_OF_PERICENTER":185.4453,"MEAN_ANOMALY":297.6866,"EPHEMERIS_TYPE":0,"CLASSIFICATION_TYPE":"U","NORAD_CAT_ID":46990,"ELEMENT_SET_NO":999,"REV_AT_EPOCH":9664,"BSTAR":0.0052877,"MEAN_MOTION_DOT":0.0002469,"MEAN_MOTION_DDOT":0}]
